OBJECT_NAME,OBJECT_ID,EPOCH,MEAN_MOTION,ECCENTRICITY,INCLINATION,RA_OF_ASC_NODE,ARG_OF_PERICENTER,MEAN_ANOMALY,EPHEMERIS_TYPE,CLASSIFICATION_TYPE,NORAD_CAT_ID,ELEMENT_SET_NO,REV_AT_EPOCH,BSTAR,MEAN_MOTION_DOT,MEAN_MOTION_DDOT
PERSEUS-M1,2014-033AF,2026-06-17T08:53:46.040928,14.95631078,.00102915,97.9641,112.5054,300.6597,59.3608,0,U,40039,999,65066,.11511035E-3,.1219E-4,0
POLYITAN-1,2014-033AJ,2026-06-17T01:15:17.278848,15.33254216,.00086301,98.0938,194.3006,141.6733,218.5122,0,U,40042,999,65357,.49658794E-3,.159E-3,0
TIGRISAT,2014-033AK,2026-06-17T09:14:54.798144,14.85162991,.00505914,97.7829,318.3922,74.5854,286.0942,0,U,40043,999,64565,.1958723E-3,.1661E-4,0
AEROCUBE 6A,2014-033AM,2026-06-17T10:11:00.600000,14.98111477,.00388924,97.7245,335.3700,17.3108,342.9430,0,U,40045,999,64665,.35804154E-3,.4245E-4,0
AEROCUBE 6B,2014-033AN,2026-06-17T10:14:01.909536,14.99571864,.00382728,97.7243,335.1630,8.5458,351.6408,0,U,40046,999,64679,.32325092E-3,.3974E-4,0
CANX-4,2014-034C,2026-06-16T14:40:32.856960,14.81263782,.00132114,98.3123,42.9035,18.8491,341.3207,0,U,40055,999,64444,.10412025E-3,.755E-5,0
CANX-5,2014-034D,2026-06-17T13:20:06.206496,14.81282475,.0013149,98.3123,43.9259,16.1161,344.0466,0,U,40056,999,63539,.10039841E-3,.726E-5,0
UKUBE-1,2014-037F,2026-06-17T05:37:29.230176,15.13553312,.00025931,98.4230,171.5112,132.6061,227.5387,0,U,40074,999,64856,.38454744E-3,.6818E-4,0
BRITE-PL2 (HEWELIUSZ),2014-049B,2026-06-17T07:21:00.330048,14.94593461,.00152868,97.9098,280.3071,108.1430,252.1456,0,U,40119,999,64146,.14142479E-3,.1474E-4,0
AEROCUBE 5C,2015-058B,2026-06-17T12:08:45.871008,14.91454811,.01307566,64.7676,261.5986,63.1470,298.2940,0,U,40965,999,36570,.16077043E-3,.1718E-4,0
AEROCUBE 7,2015-058C,2026-06-17T12:02:10.409568,14.95727167,.0120478,64.7618,243.8316,61.5772,299.7422,0,U,40966,999,36600,.20684879E-3,.2489E-4,0
FOX-1A (AO-85),2015-058D,2026-06-17T13:17:26.976480,14.90971096,.01304943,64.7761,277.8447,56.4400,304.9093,0,U,40967,999,11362,.17295613E-3,.1836E-4,0
SINOD-D 1,2015-058E,2026-06-17T11:30:22.282848,14.95907070,.01190493,64.7753,257.9976,52.9638,308.2295,0,U,40968,999,11670,.201744E-3,.2427E-4,0
SNAP-3 ALICE,2015-058G,2026-06-17T05:42:30.606336,15.60063664,.00282046,64.7502,103.7563,12.8584,347.3274,0,U,40970,999,11689,.11402358E-2,.95632E-3,0
LMRST-SAT,2015-058H,2026-06-17T08:59:59.796096,14.90590474,.01320862,64.7765,274.7384,58.5457,302.8488,0,U,40971,999,11358,.15925815E-3,.1664E-4,0
SNAP-3 EDDIE,2015-058J,2026-06-17T02:23:39.753888,15.61322960,.0027728,64.7426,94.9589,16.8324,343.3735,0,U,40972,999,11901,.11740921E-2,.103426E-2,0
PROPCUBE 3,2015-058K,2026-06-17T08:14:12.035040,14.94257973,.01240388,64.7684,252.0485,59.8560,301.4776,0,U,40973,999,11482,.17975929E-3,.2068E-4,0
BISONSAT,2015-058L,2026-06-17T07:07:42.623904,15.16191198,.00790342,64.7578,173.2895,47.2137,313.5598,0,U,40974,999,11563,.46211703E-3,.951E-4,0
SNAP-3 JIMI,2015-058M,2026-06-17T12:31:44.611968,15.02299948,.01061898,64.7634,218.7133,55.2315,305.8742,0,U,40975,999,11427,.24617589E-3,.3494E-4,0
PROPCUBE 1 (FLORA),2015-058N,2026-06-17T14:22:08.866272,14.89223698,.01307743,64.7756,293.9604,60.7641,300.6473,0,U,40976,999,11632,.17456535E-3,.1766E-4,0
SINOD-D 3,2015-058P,2026-06-17T12:12:38.795040,14.94017599,.01192779,64.7731,274.8150,58.0074,303.2566,0,U,40977,999,11480,.21406769E-3,.2453E-4,0
HORYU-4,2016-012D,2026-06-15T10:27:05.146272,15.94546005,.00051492,30.9849,91.8834,261.3375,98.6703,0,U,41340,999,57053,.9799184E-3,.392649E-2,.54782598E-4
RAVAN,2016-067B,2026-06-16T15:46:46.902720,15.54635153,.00045161,97.9887,57.1683,33.6993,326.4546,0,U,41849,999,52761,.63213901E-3,.41884E-3,0
CELTEE 1,2016-067C,2026-06-17T14:27:07.538112,15.19685466,.00009514,98.0667,35.1974,126.5069,233.6251,0,U,41850,999,52594,.18726969E-3,.3919E-4,0
OPTICUBE 04,2016-067D,2026-06-17T13:02:08.809728,15.09660048,.00168628,98.0694,20.8453,114.5788,245.7199,0,U,41851,999,52522,.1387827E-3,.2169E-4,0
AEROCUBE 8D,2016-067E,2026-06-17T14:45:41.965056,15.24402444,.00047164,98.0675,38.8188,122.1861,237.9833,0,U,41852,999,52613,.23614136E-3,.5708E-4,0
AEROCUBE 8C,2016-067F,2026-06-17T02:45:31.244544,15.24645087,.00066104,98.0547,35.5083,69.3515,290.8429,0,U,41853,999,52605,.2498007E-3,.6089E-4,0
CORVUS BC2,2017-042X,2026-06-17T11:03:14.016096,15.06299036,.0014358,97.4067,329.7991,109.6368,250.6411,0,U,42846,999,48710,.22972484E-3,.3323E-4,0
CORVUS BC1,2017-042Y,2026-06-17T12:31:04.424736,15.06469201,.00133824,97.4102,330.6722,88.1948,272.0813,0,U,42847,999,48714,.20187161E-3,.2925E-4,0
MAKERSAT 0,2017-073D,2026-06-16T22:02:54.170592,15.32091803,.01050966,97.4619,50.4356,273.9558,84.9674,0,U,43016,999,46642,.39183746E-3,.14378E-3,0
